{
  "type": "FeatureCollection",
  "features": [
    {
      "type": "Feature",
      "properties": {
        "norad_id": 40545,
        "name": "GSAT0204 (GALILEO 8)",
        "group": "gnss",
        "lat": 26.682896784213362,
        "lon": 147.78892944561457,
        "alt_km": 23225.939840634623,
        "timestamp": "2025-12-03T04:52:29.880141+00:00",
        "meta_object_name": "GSAT0204 (GALILEO 8)",
        "meta_object_id": "2015-017B",
        "meta_epoch": "2025-12-01T18:56:42.196992",
        "meta_mean_motion": 1.70475405,
        "meta_eccentricity": 0.00062658,
        "meta_inclination": 56.854,
        "meta_ra_of_asc_node": 346.9967,
        "meta_arg_of_pericenter": 260.0885,
        "meta_mean_anomaly": 99.8817,
        "meta_ephemeris_type": 0,
        "meta_classification_type": "U",
        "meta_norad_cat_id": 40545,
        "meta_element_set_no": 999,
        "meta_rev_at_epoch": 2888,
        "meta_bstar": 0,
        "meta_mean_motion_dot": -6.1e-07,
        "meta_mean_motion_ddot": 0,
        "tle_line1": "1 40545U 15017B   25335.78937728 -.00000061  00000+0  00000+0 0  9997",
        "tle_line2": "2 40545  56.8540 346.9967 0006265 260.0885  99.8817  1.70475405 28881"
      },
      "geometry": {
        "type": "Point",
        "coordinates": [
          147.78892944561457,
          26.682896784213362
        ]
      }
    },
    {
      "type": "Feature",
      "properties": {
        "norad_id": 40730,
        "name": "GPS BIIF-10 (PRN 08)",
        "group": "gnss",
        "lat": -41.27989306128749,
        "lon": -124.21489041205659,
        "alt_km": 20137.771941532937,
        "timestamp": "2025-12-03T04:52:29.880153+00:00",
        "meta_object_name": "GPS BIIF-10 (PRN 08)",
        "meta_object_id": "2015-033A",
        "meta_epoch": "2025-12-02T06:43:54.109632",
        "meta_mean_motion": 2.00566042,
        "meta_eccentricity": 0.01103091,
        "meta_inclination": 54.1399,
        "meta_ra_of_asc_node": 275.2033,
        "meta_arg_of_pericenter": 26.5495,
        "meta_mean_anomaly": 334.0087,
        "meta_ephemeris_type": 0,
        "meta_classification_type": "U",
        "meta_norad_cat_id": 40730,
        "meta_element_set_no": 999,
        "meta_rev_at_epoch": 7604,
        "meta_bstar": 0,
        "meta_mean_motion_dot": -3.8e-07,
        "meta_mean_motion_ddot": 0,
        "tle_line1": "1 40730U 15033A   25336.28048738 -.00000038  00000+0  00000+0 0  9995",
        "tle_line2": "2 40730  54.1399 275.2033 0110309  26.5495 334.0087  2.00566042 76041"
      },
      "geometry": {
        "type": "Point",
        "coordinates": [
          -124.21489041205659,
          -41.27989306128749
        ]
      }
    },
    {
      "type": "Feature",
      "properties": {
        "norad_id": 40748,
        "name": "BEIDOU-3S M2S (C58)",
        "group": "gnss",
        "lat": -55.0311497224347,
        "lon": -139.86436173580077,
        "alt_km": 21499.278406833295,
        "timestamp": "2025-12-03T04:52:29.880164+00:00",
        "meta_object_name": "BEIDOU-3S M2S (C58)",
        "meta_object_id": "2015-037A",
        "meta_epoch": "2025-12-01T04:31:01.292160",
        "meta_mean_motion": 1.86229002,
        "meta_eccentricity": 0.0012493,
        "meta_inclination": 55.0491,
        "meta_ra_of_asc_node": 308.8604,
        "meta_arg_of_pericenter": 267.0141,
        "meta_mean_anomaly": 92.8367,
        "meta_ephemeris_type": 0,
        "meta_classification_type": "U",
        "meta_norad_cat_id": 40748,
        "meta_element_set_no": 999,
        "meta_rev_at_epoch": 7043,
        "meta_bstar": 0,
        "meta_mean_motion_dot": -5.6e-07,
        "meta_mean_motion_ddot": 0,
        "tle_line1": "1 40748U 15037A   25335.18820940 -.00000056  00000+0  00000+0 0  9999",
        "tle_line2": "2 40748  55.0491 308.8604 0012493 267.0141  92.8367  1.86229002 70437"
      },
      "geometry": {
        "type": "Point",
        "coordinates": [
          -139.86436173580077,
          -55.0311497224347
        ]
      }
    },
    {
      "type": "Feature",
      "properties": {
        "norad_id": 40749,
        "name": "BEIDOU-3S M1S (C57)",
        "group": "gnss",
        "lat": 47.55734388151161,
        "lon": 78.88344993920578,
        "alt_km": 21524.710875796307,
        "timestamp": "2025-12-03T04:52:29.880176+00:00",
        "meta_object_name": "BEIDOU-3S M1S (C57)",
        "meta_object_id": "2015-037B",
        "meta_epoch": "2025-12-01T22:57:46.412352",
        "meta_mean_motion": 1.86253762,
        "meta_eccentricity": 0.0003321,
        "meta_inclination": 55.0451,
        "meta_ra_of_asc_node": 308.8236,
        "meta_arg_of_pericenter": 355.9906,
        "meta_mean_anomaly": 3.9975,
        "meta_ephemeris_type": 0,
        "meta_classification_type": "U",
        "meta_norad_cat_id": 40749,
        "meta_element_set_no": 999,
        "meta_rev_at_epoch": 7045,
        "meta_bstar": 0,
        "meta_mean_motion_dot": -6e-07,
        "meta_mean_motion_ddot": 0,
        "tle_line1": "1 40749U 15037B   25335.95678718 -.00000060  00000+0  00000+0 0  9994",
        "tle_line2": "2 40749  55.0451 308.8236 0003321 355.9906   3.9975  1.86253762 70451"
      },
      "geometry": {
        "type": "Point",
        "coordinates": [
          78.88344993920578,
          47.55734388151161
        ]
      }
    },
    {
      "type": "Feature",
      "properties": {
        "norad_id": 40889,
        "name": "GSAT0205 (GALILEO 9)",
        "group": "gnss",
        "lat": -50.4706432038683,
        "lon": 169.07026192576325,
        "alt_km": 23233.423023902567,
        "timestamp": "2025-12-03T04:52:29.880205+00:00",
        "meta_object_name": "GSAT0205 (GALILEO 9)",
        "meta_object_id": "2015-045A",
        "meta_epoch": "2025-12-02T03:27:57.508704",
        "meta_mean_motion": 1.70472886,
        "meta_eccentricity": 0.00058353,
        "meta_inclination": 55.0073,
        "meta_ra_of_asc_node": 227.0512,
        "meta_arg_of_pericenter": 38.3993,
        "meta_mean_anomaly": 321.7247,
        "meta_ephemeris_type": 0,
        "meta_classification_type": "U",
        "meta_norad_cat_id": 40889,
        "meta_element_set_no": 999,
        "meta_rev_at_epoch": 6365,
        "meta_bstar": 0,
        "meta_mean_motion_dot": 3.5e-07,
        "meta_mean_motion_ddot": 0,
        "tle_line1": "1 40889U 15045A   25336.14441561  .00000035  00000+0  00000+0 0  9995",
        "tle_line2": "2 40889  55.0073 227.0512 0005835  38.3993 321.7247  1.70472886 63655"
      },
      "geometry": {
        "type": "Point",
        "coordinates": [
          169.07026192576325,
          -50.4706432038683
        ]
      }
    },
    {
      "type": "Feature",
      "properties": {
        "norad_id": 40890,
        "name": "GSAT0206 (GALILEO 10)",
        "group": "gnss",
        "lat": 20.707802093874125,
        "lon": 31.686661227175787,
        "alt_km": 23225.540629006864,
        "timestamp": "2025-12-03T04:52:29.880216+00:00",
        "meta_object_name": "GSAT0206 (GALILEO 10)",
        "meta_object_id": "2015-045B",
        "meta_epoch": "2025-12-01T18:40:58.746144",
        "meta_mean_motion": 1.70473031,
        "meta_eccentricity": 0.0003438,
        "meta_inclination": 55.0064,
        "meta_ra_of_asc_node": 227.0564,
        "meta_arg_of_pericenter": 30.2471,
        "meta_mean_anomaly": 329.8532,
        "meta_ephemeris_type": 0,
        "meta_classification_type": "U",
        "meta_norad_cat_id": 40890,
        "meta_element_set_no": 999,
        "meta_rev_at_epoch": 6367,
        "meta_bstar": 0,
        "meta_mean_motion_dot": 3.4e-07,
        "meta_mean_motion_ddot": 0,
        "tle_line1": "1 40890U 15045B   25335.77845771  .00000034  00000+0  00000+0 0  9995",
        "tle_line2": "2 40890  55.0064 227.0564 0003438  30.2471 329.8532  1.70473031 63674"
      },
      "geometry": {
        "type": "Point",
        "coordinates": [
          31.686661227175787,
          20.707802093874125
        ]
      }
    },
    {
      "type": "Feature",
      "properties": {
        "norad_id": 40938,
        "name": "BEIDOU-3S IGSO-2S (C56)",
        "group": "gnss",
        "lat": -14.546824059530856,
        "lon": -111.68075894892156,
        "alt_km": 36016.430938756705,
        "timestamp": "2025-12-03T04:52:29.880228+00:00",
        "meta_object_name": "BEIDOU-3S IGSO-2S (C56)",
        "meta_object_id": "2015-053A",
        "meta_epoch": "2025-12-02T18:11:44.349216",
        "meta_mean_motion": 1.00271748,
        "meta_eccentricity": 0.0061099,
        "meta_inclination": 49.5284,
        "meta_ra_of_asc_node": 261.1253,
        "meta_arg_of_pericenter": 188.6619,
        "meta_mean_anomaly": 351.1283,
        "meta_ephemeris_type": 0,
        "meta_classification_type": "U",
        "meta_norad_cat_id": 40938,
        "meta_element_set_no": 999,
        "meta_rev_at_epoch": 3738,
        "meta_bstar": 0,
        "meta_mean_motion_dot": -1.58e-06,
        "meta_mean_motion_ddot": 0,
        "tle_line1": "1 40938U 15053A   25336.75815219 -.00000158  00000+0  00000+0 0  9998",
        "tle_line2": "2 40938  49.5284 261.1253 0061099 188.6619 351.1283  1.00271748 37386"
      },
      "geometry": {
        "type": "Point",
        "coordinates": [
          -111.68075894892156,
          -14.546824059530856
        ]
      }
    }
  ]
}